stk.v.4.3 

BEGIN Ephemeris 
 
NumberOfEphemerisPoints		146 
ScenarioEpoch	    3 Sep 2020 21:10:33.187593520 
InterpolationMethod		Lagrange 
InterpolationOrder		5 
CentralBody				Earth 
CoordinateSystem			TEME 
CoordinateSystemEpoch	  3 Sep 2020 21:10:33.187593520 
DistanceUnit			Kilometers 
 
EphemerisTimePosVel 
 
       0.00000000    3698.16740824    5814.02915332       0.02814141 -0.509234251  0.304076662  7.584659674
 END Ephemeris 
